E-ST@R-II               
1 41459U 16025D   22202.46595056  .00018782  00000+0  79447-3 0  9994
2 41459  98.1886  10.1549 0144211 153.6267 207.2409 15.14211689342649
AAUSAT 4                
1 41460U 16025E   22202.70888389  .00028758  00000+0  10625-2 0  9993
2 41460  98.1819  16.9363 0123941 127.8874 233.3651 15.20674934343147
BEESAT-4                
1 41619U 16040W   22202.41721823  .00014415  00000+0  46840-3 0  9997
2 41619  97.2147 252.1523 0008897   7.1964 352.9404 15.31979203325920
RAVAN                   
1 41849U 16067B   22202.38101869  .00003499  00000+0  27935-3 0  9993
2 41849  98.0045 340.3537 0013447 225.4390 134.5736 15.00912597311084
CELTEE 1                
1 41850U 16067C   22202.36790160  .00002293  00000+0  19652-3 0  9999
2 41850  98.0003 335.2538 0008332 217.3311 142.7332 14.98572821310837
OPTICUBE 04             
1 41851U 16067D   22202.36414989  .00001415  00000+0  12555-3 0  9992
2 41851  97.9996 334.2602 0008126 221.6017 138.4587 14.97856738310789
AEROCUBE 8D             
1 41852U 16067E   22202.35969033  .00002539  00000+0  21745-3 0  9996
2 41852  97.9978 334.2874 0008979 223.3474 136.7042 14.98486968310774
AEROCUBE 8C             
1 41853U 16067F   22202.40821063  .00001905  00000+0  16456-3 0  9992
2 41853  97.9992 334.1578 0008363 225.0781 134.9762 14.98468052310771
PROMETHEUS 2-1          
1 41854U 16067G   22202.35002991  .00003760  00000+0  30956-3 0  9990
2 41854  97.9982 335.2373 0010878 233.8529 126.1688 14.99692802310826
PROMETHEUS 2-3          
1 41855U 16067H   22202.60898703  .00003363  00000+0  27727-3 0  9994
2 41855  98.0019 335.5864 0008839 237.6107 122.4261 14.99735184310867
INS-1B                  
1 41954U 17008G   22202.73391246  .00013082  00000+0  42117-3 0  9993
2 41954  97.2556 261.9223 0009268 110.7598 249.4638 15.32297064301997
BGUSAT                  
1 41999U 17008BD  22202.74046535  .00031249  00000+0  71430-3 0  9996
2 41999  97.2789 273.0589 0006934 104.1521 256.0498 15.42757433301926
DIDO-2                  
1 42000U 17008BE  22202.72244436  .00007146  00000+0  25638-3 0  9996
2 42000  97.2545 261.1545 0008842 129.0372 231.1657 15.28960301301307
PEASSS                  
1 42015U 17008BV  22202.42926735  .00011187  00000+0  36059-3 0  9997
2 42015  97.2612 264.8676 0006840 124.3360 235.8530 15.32315537301978
AL-FARABI 1             
1 42016U 17008BW  22202.44871527  .00015836  00000+0  46108-3 0  9999
2 42016  97.2676 268.0712 0006248 119.8047 240.3818 15.35470779302265
NAYIF-1 (EO-88)         
1 42017U 17008BX  22202.13479678  .00018657  00000+0  54017-3 0  9999
2 42017  97.2668 267.7769 0006542 119.9747 240.2147 15.35610680302249
UCLSAT                  
1 42765U 17036A   22202.39567654  .00011886  00000+0  40512-3 0  9992
2 42765  97.1952 244.0073 0008914 191.0661 169.0386 15.30480730283046
LITUANICASAT-2          
1 42768U 17036D   22202.40199463  .00026815  00000+0  73719-3 0  9999
2 42768  97.2036 247.0532 0010835 173.6035 186.5351 15.37118114282464
AALTO-1                 
1 42775U 17036L   22202.07634108  .00007603  00000+0  29758-3 0  9998
2 42775  97.1955 238.5685 0011849 198.8846 161.1955 15.26023245281905
URSA MAIOR              
1 42776U 17036M   22202.37233275  .00007865  00000+0  30221-3 0  9999
2 42776  97.1969 239.6159 0011574 196.2001 163.8870 15.26629388281982
COMPASS 2               
1 42777U 17036N   22202.36922657  .00016350  00000+0  50446-3 0  9998
2 42777  97.2024 246.2262 0009736 178.1887 181.9393 15.33599417282342
DIAMOND RED             
1 42783U 17036U   22202.38026269  .00008660  00000+0  31938-3 0  9991
2 42783  97.1975 242.0156 0009791 199.3308 160.7562 15.27975990282129
PEGASUS                 
1 42784U 17036V   22202.59978823  .00010973  00000+0  38512-3 0  9992
2 42784  97.1971 243.4344 0009623 194.9409 165.1549 15.29539423282232
DIAMOND GREEN           
1 42785U 17036W   22202.37944298  .00008692  00000+0  32125-3 0  9997
2 42785  97.1977 242.0791 0009615 200.2737 159.8122 15.27908327282199
DIAMOND BLUE            
1 42786U 17036X   22202.37863513  .00009242  00000+0  34120-3 0  9997
2 42786  97.1978 242.0702 0009638 200.9062 159.1786 15.27926124282190
NUDTSAT                 
1 42787U 17036Y   22202.60611264  .00022127  00000+0  65610-3 0  9993
2 42787  97.2004 247.7987 0008376 178.8662 181.2602 15.34811226282339
SUCHAI                  
1 42788U 17036Z   22201.11736389  .00018711  00000+0  61767-3 0  9998
2 42788  97.1975 243.7211 0008983 193.0526 167.0484 15.31413862282188
SKCUBE                  
1 42789U 17036AA  22202.37279330  .00011657  00000+0  39559-3 0  9992
2 42789  97.1976 244.3680 0009118 190.3261 169.7794 15.30623286282268
VZLUSAT-1               
1 42790U 17036AB  22202.09528669  .00021080  00000+0  62887-3 0  9996
2 42790  97.1999 247.2624 0008391 180.1624 179.9618 15.34628303282400
ROBUSTA-1B              
1 42792U 17036AD  22202.38209451  .00013076  00000+0  43574-3 0  9993
2 42792  97.1974 244.9642 0008692 189.3697 170.7384 15.31188385282311
CICERO 6                
1 42793U 17036AE  22202.33731546  .00008100  00000+0  30025-3 0  9993
2 42793  97.1955 242.5111 0008354 197.5793 162.5159 15.27844082282248
CORVUS BC2              
1 42846U 17042X   22202.32997033  .00001257  00000+0  12602-3 0  9990
2 42846  97.4200  57.7176 0007950 238.6770 121.3673 14.92970319273331
CORVUS BC1              
1 42847U 17042Y   22202.34117877  .00001445  00000+0  14375-3 0  9991
2 42847  97.4201  58.0400 0007640 237.2000 122.8485 14.93074164273346
MIRATA                  
1 43015U 17073C   22202.67246786  .00008069  00000+0  57809-3 0  9999
2 43015  97.6709  96.7080 0239206  68.7358 293.9220 14.84377769252341
MAKERSAT 0              
1 43016U 17073D   22202.20312520  .00006100  00000+0  44798-3 0  9996
2 43016  97.6724  95.7594 0246411  74.8122 288.0198 14.82570196252190
AEROCUBE 7B (OCSD B)    
1 43042U 17071F   22201.36641490  .00634958  18799-3  12927-2 0  9994
2 43042  51.6268 230.1685 0009325   8.9929 351.1246 15.98804814260923
AEROCUBE 7C (OCSD C)    
1 43043U 17071G   22202.49108157  .00313080  48402-4  89655-3 0  9996
2 43043  51.6252 227.1585 0008473  12.2893 347.8319 15.92621012261030
ASGARDIA 1              
1 43049U 17071N   22202.77484193  .00175925  00000+0  84173-3 0  9991
2 43049  51.6276 230.0574 0006117   9.8947 350.2174 15.81696871261016
PROPCUBE 2 (FAUNA)      
1 43052U 17071R   22202.33296332  .00759647  29835-3  10787-2 0  9992
2 43052  51.6170 218.6326 0007451  17.3759 342.7506 16.04970673261125
CORVUS BC3              
1 43118U 18004H   22202.43238288  .00007062  00000+0  26283-3 0  9994
2 43118  97.3611 274.7068 0007702 235.7357 124.3153 15.27774476251409
MICROMAS-2A             
1 43131U 18004W   22202.72900399  .00022845  00000+0  61816-3 0  9997
2 43131  97.3743 282.1180 0005557 210.7611 149.3309 15.37689079251843
SPACEBEE-4              
1 43139U 18004AE  22202.74066725  .00050272  00000+0  97949-3 0  9994
2 43139  97.3836 287.5346 0004881 198.0206 162.0871 15.47376551252132
SPACEBEE-3              
1 43140U 18004AF  22202.49575126  .00119170  00000+0  13985-2 0  9998
2 43140  97.3865 291.6451 0004724 200.5026 159.6042 15.61079021252369
SPACEBEE-2              
1 43141U 18004AG  22202.47050995  .00193229  00000+0  16157-2 0  9990
2 43141  97.3864 293.4650 0005441 211.6011 148.4925 15.69402237252468
SPACEBEE-1              
1 43142U 18004AH  22202.74528166  .00713999  20489-3  23654-2 0  9990
2 43142  97.3818 296.1326 0009615 252.5909 107.4313 15.90286011252645
CICERO 7                
1 43143U 18004AJ  22202.44794264  .00015006  00000+0  45079-3 0  9995
2 43143  97.3723 281.2133 0004458 220.8956 139.1953 15.34509640251782
GOMX-4B                 
1 43196U 18015E   22202.35544965  .00005589  00000+0  21050-3 0  9994
2 43196  97.5375 342.0672 0015601 300.2432  59.7262 15.27408789248334
GOMX-4A                 
1 43197U 18015F   22202.82966141  .00007739  00000+0  27493-3 0  9997
2 43197  97.5375 343.4362 0015343 297.7076 203.0713 15.29199585248476
AEROCUBE 12A            
1 43556U 18046C   22202.51094029  .00019932  00000+0  49263-3 0  9990
2 43556  51.6373  17.7081 0007141 159.9241 200.2026 15.40443350224568
AEROCUBE 12B            
1 43557U 18046D   22202.49290898  .00015579  00000+0  41593-3 0  9991
2 43557  51.6392  22.7641 0007321 154.3958 205.7389 15.38262335224440
SURFSAT                 
1 43614U 18070B   22202.52773344  .00038142  00000+0  51345-3 0  9995
2 43614  93.0283 113.2442 0007461 223.9180 136.1492 15.57703539216364
CP7 (DAVE)              
1 43615U 18070C   22202.75895870  .00034121  00000+0  48540-3 0  9996
2 43615  93.0277 113.1623 0007882 229.7884 130.2691 15.56223348216360
ELFIN-B                 
1 43616U 18070D   22202.35032756  .00138766  00000+0  95001-3 0  9993
2 43616  93.0165 114.4531 0007543 184.2474 175.8736 15.74328253216673
ELFIN-A                 
1 43617U 18070E   22202.48324461  .00163923  00000+0  95336-3 0  9999
2 43617  93.0231 115.9548 0008053 172.7445 187.3949 15.77994001216755
CUBEBEL-1 (BSUSAT-1)    
1 43666U 18083E   22202.74524514  .00009889  00000+0  41299-3 0  9996
2 43666  97.4181 231.0475 0012217 205.4071 245.6501 15.23772425206707
CICERO 10               
1 43690U 18088A   22202.29005956  .00006696  00000+0  26374-3 0  9992
2 43690  85.0364 293.8705 0014082  31.3785 328.8296 15.25309742204918
IRVINE01                
1 43693U 18088D   22202.73460220  .00035123  00000+0  87278-3 0  9990
2 43693  85.0282 287.5673 0009793 346.8627  13.2368 15.40108067205499
PROXIMA I               
1 43694U 18088E   22202.54170017  .00007582  00000+0  28406-3 0  9998
2 43694  85.0298 290.3098 0016223 355.5983   4.5116 15.26962497205176
PROXIMA II              
1 43696U 18088G   22202.73895042  .00007601  00000+0  28492-3 0  9990
2 43696  85.0300 290.1981 0016242 354.8006   5.3067 15.26942115205191
